[{"OBJECT_NAME":"WILDFIRE 5","OBJECT_ID":"2023-133N","EPOCH":"2026-03-09T15:05:21.111648","MEAN_MOTION":13.85448011,"ECCENTRICITY":0.0004913,"INCLINATION":81.0005,"RA_OF_ASC_NODE":103.3656,"ARG_OF_PERICENTER":278.9897,"MEAN_ANOMALY":81.0704,"EPHEMERIS_TYPE":0,"CLASSIFICATION_TYPE":"U","NORAD_CAT_ID":57769,"ELEMENT_SET_NO":999,"REV_AT_EPOCH":12724,"BSTAR":6.7604e-5,"MEAN_MOTION_DOT":8.8e-7,"MEAN_MOTION_DDOT":0},{"OBJECT_NAME":"METEOR 2-19","OBJECT_ID":"1990-057A","EPOCH":"2026-03-09T21:52:43.336416","MEAN_MOTION":13.84889733,"ECCENTRICITY":0.00161423,"INCLINATION":82.5506,"RA_OF_ASC_NODE":357.793,"ARG_OF_PERICENTER":5.6919,"MEAN_ANOMALY":354.4422,"EPHEMERIS_TYPE":0,"CLASSIFICATION_TYPE":"U","NORAD_CAT_ID":20670,"ELEMENT_SET_NO":999,"REV_AT_EPOCH":80389,"BSTAR":4.8146054e-5,"MEAN_MOTION_DOT":6.9e-7,"MEAN_MOTION_DDOT":0}]
